[{"OBJECT_NAME":"JACK E","OBJECT_ID":"2025-274E","EPOCH":"2026-03-09T18:40:25.511520","MEAN_MOTION":14.9265137,"ECCENTRICITY":0.0012643,"INCLINATION":97.7437,"RA_OF_ASC_NODE":359.4956,"ARG_OF_PERICENTER":334.1516,"MEAN_ANOMALY":25.907,"EPHEMERIS_TYPE":0,"CLASSIFICATION_TYPE":"U","NORAD_CAT_ID":66654,"ELEMENT_SET_NO":999,"REV_AT_EPOCH":1538,"BSTAR":0.00027190729,"MEAN_MOTION_DOT":2.749e-5,"MEAN_MOTION_DDOT":0},{"OBJECT_NAME":"CZ-4B DEB","OBJECT_ID":"1999-057SZ","EPOCH":"2026-03-02T21:23:50.470368","MEAN_MOTION":14.9551257,"ECCENTRICITY":0.0057647,"INCLINATION":98.7518,"RA_OF_ASC_NODE":85.7766,"ARG_OF_PERICENTER":19.8773,"MEAN_ANOMALY":340.4672,"EPHEMERIS_TYPE":0,"CLASSIFICATION_TYPE":"U","NORAD_CAT_ID":39052,"ELEMENT_SET_NO":999,"REV_AT_EPOCH":72291,"BSTAR":0.0001718,"MEAN_MOTION_DOT":1.891e-5,"MEAN_MOTION_DDOT":0}]
